CALSPHERE 1             
1 00900U 64063C   23017.52563932  .00000947  00000+0  99536-3 0  9990
2 00900  90.1801  44.9205 0028918  98.2494  76.2570 13.74050729900057
CALSPHERE 2             
1 00902U 64063E   23016.87764641  .00000068  00000+0  89673-4 0  9995
2 00902  90.1937  48.1413 0016593 245.7418 289.5457 13.52733011687623
LCS 1                   
1 01361U 65034C   23016.88924708  .00000026  00000+0  23261-2 0  9990
2 01361  32.1385 258.5368 0010871 274.9903  84.9353  9.89302572 86363
TEMPSAT 1               
1 01512U 65065E   23017.03778715  .00000062  00000+0  10488-3 0  9993
2 01512  89.9214 217.0079 0070869 149.5246   3.6856 13.33466302793830
CALSPHERE 4A            
1 01520U 65065H   23017.06195637  .00000147  00000+0  26680-3 0  9996
2 01520  89.9829 129.8987 0069206  22.7057 151.2570 13.35928074796583
OPS 5712 (P/L 160)      
1 02826U 67053A   23016.87566694  .00009080  00000+0  22642-2 0  9996
2 02826  69.9274 147.9879 0003766   7.6035 352.5156 14.51862381883695
OPS 5712 (P/L 153)      
1 02874U 67053H   23017.09824527  .00000103  00000+0  11331-3 0  9997
2 02874  69.9734 267.5196 0007107 351.4701   8.6282 13.96440502833131
SURCAL 150B             
1 02909U 67053J   23017.59138050  .00013374  00000+0  24344-2 0  9991
2 02909  69.9465 124.9796 0001708 337.2566  22.8500 14.66202839895478
RIGIDSPHERE 2 (LCS 4)   
1 05398U 71067E   23017.44455201  .00001883  00000+0  64667-3 0  9995
2 05398  87.6236 323.9547 0064655  40.9306 319.6719 14.34489040695160
COSMOS 2493 (SKRL-756 1)
1 39490U 13078A   23017.51479389  .00004365  00000+0  44719-3 0  9998
2 39490  82.4174  28.9389 0018608 104.9539 255.3741 14.90154277491894
COSMOS 2494 (SKRL-756 2)
1 39491U 13078B   23017.54704764  .00005021  00000+0  49481-3 0  9991
2 39491  82.4175  22.2129 0023103  81.4342 278.9494 14.91661370492246
